[
    {
        "Altitude(m)": 605470.7660711546,
        "Argument of Periapsis(deg)": 0.0,
        "Eccentricity": 0.0,
        "Inclination(deg)": 60.0,
        "Latitude(deg)": 27.98812845774403,
        "Longitude(deg)": -172.73700317928967,
        "Mean Anomaly(deg)": 147.2727,
        "RAAN(deg)": 125.00000000000001,
        "Satellite Name": "Test1 559",
        "Satellite Number": 559,
        "Semi-Major Axis(m)": 6980739.136638005,
        "Time(s)": 0
    },
    {
        "Altitude(m)": 605395.8040721267,
        "Argument of Periapsis(deg)": 0.00010418945913296404,
        "Eccentricity": 0.0,
        "Inclination(deg)": 60.0,
        "Latitude(deg)": 27.47381856579983,
        "Longitude(deg)": -172.38381672162834,
        "Mean Anomaly(deg)": 147.89280614546186,
        "RAAN(deg)": 124.99957995086027,
        "Satellite Name": "Test1 559",
        "Satellite Number": 559,
        "Semi-Major Axis(m)": 6980739.136638005,
        "Time(s)": 10
    }
]